C/2019 O2 (PANSTARRS),e,93.3070,48.2603,129.5843,58.65722,0.0021939,0.83494889,1.4541,01/28.0/2025,2000,g  5.0,4.0
# From MPEC 2024-TP3
C/2019 O3 (Palomar),h,03/08.9215/2021,89.8001,300.4704,60.1142,1.003307,8.821079,2000,3.5,4.0
# From MPEC 2021-P47
A/2019 O4,e,115.0264,354.9280,61.8418,33.25858,0.0051386,0.89044831,9.3154,01/28.0/2025,2000,g 15.5,2.0
# From MPEC 2024-EF7
C/2019 Q1 (Lemmon),h,07/21.9629/2020,155.7267,42.4618,56.2598,1.002252,5.004354,2000,8.5,4.0
# From MPC117072
A/2019 Q2,e,158.9873,188.0955,176.4985,58.71536,0.0021907,0.97849985,0.0000,07/23.2722/2019,2000,g 18.0,2.0
# From MPC117072
P/2019 S2 (PANSTARRS),e,10.4636,93.1802,216.9906,4.746840,0.0953009,0.20469837,206.9500,01/28.0/2025,2000,g 13.5,4.0
# From MPEC 2022-CN4
P/2019 S3 (PANSTARRS),e,8.6937,150.1450,213.0930,3.414661,0.1562006,0.47082086,309.2109,01/28.0/2025,2000,g 18.3,4.0
# From MPEC 2021-S45
C/2019 S4 (Lemmon),e,92.1066,63.1581,71.3725,246.4568,0.0002547,0.98604209,0.0000,04/09.0875/2020,2000,g 11.0,4.0
# From MPEC 2023-N01
A/2019 T1,e,120.8359,6.9361,91.0053,38.80603,0.0040771,0.88981011,6.0095,01/28.0/2025,2000,g 13.0,2.0
# From MPEC 2023-R20
C/2019 T2 (Lemmon),e,111.3931,155.6560,239.4005,4142,0.0000037,0.99936163,0.0000,04/22.6462/2021,2000,g  9.0,4.0
# From MPEC 2023-UR6
C/2019 T3 (ATLAS),e,121.8650,139.5394,112.4834,3984,0.0000039,0.99850568,0.0000,03/04.5489/2021,2000,g  6.8,4.0
# From MPEC 2024-VJ2
C/2019 T4 (ATLAS),e,53.6257,199.9158,351.1083,873.5289,0.0000382,0.99514814,0.0000,06/08.6343/2022,2000,g  5.0,4.0
# From MPEC 2021-P47
P/2019 T5 (ATLAS),e,33.4998,247.6108,189.6104,8.005645,0.0435121,0.80983962,87.2304,01/28.0/2025,2000,g 15.0,4.0
# From MPEC 2021-P47
P/2019 T6 (PANSTARRS),e,18.7004,71.2431,329.0516,5.441904,0.0776386,0.62269526,148.0491,01/28.0/2025,2000,g 15.5,4.0
# From MPC118096
P/2019 U4 (PANSTARRS),e,11.6960,200.0087,181.0741,3.519077,0.1493004,0.47582779,291.9956,01/28.0/2025,2000,g 19.0,4.0
# From MPEC 2025-AH4
C/2019 U5 (PANSTARRS),h,03/29.5406/2023,113.5125,2.6208,181.4529,1.000397,3.623868,2000,4.5,4.0
# From MPEC 2022-H04
C/2019 U6 (Lemmon),e,60.9720,235.7771,329.4449,307.2957,0.0001830,0.99704514,0.0000,06/18.2632/2020,2000,g 10.0,4.0
# From MPEC 2022-N37
C/2019 V1 (Borisov),e,61.9505,83.1479,51.1822,2276,0.0000091,0.99864088,0.0000,07/17.2989/2020,2000,g 11.0,4.0
# From MPEC 2022-L66
P/2019 V2 (Groeller),e,11.8069,189.1523,335.6174,7.494439,0.0480392,0.33169682,75.1394,01/28.0/2025,2000,g 10.0,4.0
# From MPEC 2023-A50
P/2019 W1 (PANSTARRS),e,23.4697,35.3688,18.8644,4.548470,0.1016029,0.26729166,212.1763,01/28.0/2025,2000,g 12.9,4.0
# From MPEC 2021-P47
P/2019 X1 (Pruyne),e,10.2477,43.6791,36.9422,6.178101,0.0641832,0.30395999,129.3032,01/28.0/2025,2000,g 10.4,4.0
# From MPEC 2020-C98
P/2019 X2 (Pan-STARRS),e,15.8951,250.8381,213.4905,3.634672,0.1422349,0.50041815,266.6542,01/28.0/2025,2000,g 18.0,4.0
# From MPC119999
C/2019 Y1 (ATLAS),e,73.3211,31.5049,57.9073,87.95560,0.0011948,0.99060224,0.0000,03/17.0211/2020,2000,g 13.7,4.0
# From MPEC 2025-AH4
P/2019 Y3 (Catalina),e,24.5819,139.3086,2.5489,3.016507,0.1881254,0.69135529,353.4448,01/28.0/2025,2000,g 18.5,4.0
# From MPEC 2024-A43
C/2019 Y4 (ATLAS),e,44.9726,120.7748,177.4222,338.5590,0.0001582,0.99924056,0.0000,05/29.9904/2020,2000,g 11.8,6.0
# From MPEC 2020-L06
C/2019 Y4-A (ATLAS),h,05/30.0368/2020,45.4088,121.1415,177.2549,1.001382,0.255275,2000,11.6,6.0
# From MPEC 2023-J29
C/2019 Y4-B (ATLAS),e,45.1014,120.8827,177.3662,9650,0.0000010,0.99997341,0.0000,05/30.0028/2020,2000,g 12.1,6.0
# From MPEC 2020-L06
C/2019 Y4-C (ATLAS),h,05/29.9891/2020,45.1923,120.8688,177.2878,1.002110,0.256350,2000,12.7,6.0
# From MPEC 2020-L06
C/2019 Y4-D (ATLAS),e,45.2440,121.2322,177.4294,67.61767,0.0017726,0.99621908,0.0000,05/30.0924/2020,2000,g 12.5,6.0
# From MPEC 2023-A50
C/2019 Y5 (PANSTARRS),e,82.7661,51.7561,303.6491,696.5004,0.0000536,0.99291980,0.0000,08/16.8712/2019,2000,g 11.0,4.0
# From MPEC 2023-A50
A/2020 A1,e,149.0318,119.0823,302.3979,25.47551,0.0076651,0.93446530,14.4512,01/28.0/2025,2000,g 18.0,2.0
# From MPEC 2022-YN2
C/2020 A2 (Iwamoto),e,120.5164,286.1997,68.0123,1023,0.0000301,0.99904740,0.0000,01/07.5528/2020,2000,g 13.5,4.0
# From MPEC 2023-A50
C/2020 A3 (ATLAS),e,146.6269,120.8004,268.2519,8038,0.0000014,0.99928430,0.0000,06/27.4727/2019,2000,g  8.0,4.0
# From MPEC 2022-P91
P/2020 A4 (PANSTARRS-Lemmon),e,24.9998,312.2973,144.8671,8.200430,0.0419710,0.65449870,79.3980,01/28.0/2025,2000,g 15.0,4.0
# From MPEC 2020-N08
A/2020 B1,e,18.5362,309.8287,154.8363,51.93487,0.0026334,0.96652801,4.8943,01/28.0/2025,2000,g 21.0,2.0
# From MPEC 2020-HN5
C/2020 B2 (Lemmon),e,55.7533,354.2091,143.6056,67.77074,0.0017666,0.95933285,3.2291,01/28.0/2025,2000,g 10.0,4.0
# From MPEC 2022-N37
C/2020 B3 (Rankin),e,20.7071,185.7755,324.9006,1002,0.0000311,0.99667871,0.0000,10/20.4331/2019,2000,g 13.0,4.0
# From MPEC 2023-KD6
P/2020 B4 (Sheppard),e,11.6044,185.9592,341.9964,7.971031,0.0437958,0.19265291,51.0898,01/28.0/2025,2000,g 10.5,4.0
# From MPEC 2025-AH4
C/2020 F2 (ATLAS),h,07/12.9081/2022,163.5896,250.3044,48.2515,1.003293,8.813659,2000,4.5,4.0
# From MPEC 2021-O56
C/2020 F3 (NEOWISE),e,129.1479,61.0942,37.3746,396.3891,0.0001249,0.99925795,0.0000,07/04.6772/2020,2000,g  7.5,5.2
# From MPEC 2024-UQ8
C/2020 F5 (MASTER),e,52.2243,350.5270,310.6451,166.0103,0.0004608,0.97393561,0.0000,03/16.4386/2021,2000,g  6.5,3.2
# From MPEC 2020-L06
C/2020 F6 (PANSTARRS),e,174.5837,207.8608,344.3714,352.6821,0.0001488,0.99008073,0.0000,04/10.7995/2020,2000,g 14.5,2.8
# From MPEC 2024-A43
C/2020 F7 (Lemmon),e,93.9745,321.8302,227.9667,558.5565,0.0000747,0.99045052,0.0000,11/13.7072/2021,2000,g  7.0,4.0
# From MPEC 2025-AE4
C/2020 F8 (SWAN),e,110.5473,259.7890,68.0960,2501,0.0000079,0.99982739,0.0000,05/26.1798/2020,2000,g 10.0,4.0
# From MPEC 2020-L06
P/2020 G1 (Pimentel),e,18.5106,240.1084,207.6332,3.606946,0.1438781,0.86080693,255.5130,01/28.0/2025,2000,g 17.0,4.0
# From MPEC 2025-AE4
C/2020 H2 (Pruyne),e,124.7860,277.6726,26.5970,183.3568,0.0003970,0.99548084,0.0000,04/27.2450/2020,2000,g 14.0,3.2
# From MPEC 2020-HM1
C/2020 H3 (Wierzchos),p,06/05.7162/2020,62.5292,30.4456,2.300288,270.6227,2000,13.5,4.0
# From MPEC 2025-AE4
C/2020 H4 (Leonard),e,84.2879,307.4858,116.7821,126.6627,0.0006914,0.99260570,0.0000,08/29.1856/2020,2000,g 15.0,3.2
# From MPEC 2024-P23
C/2020 H5 (Robinson),e,70.2394,210.6206,326.2689,5391,0.0000025,0.99826839,0.0000,12/09.9223/2020,2000,g  5.0,4.0
# From MPEC 2024-JU4
C/2020 H6 (ATLAS),e,79.9830,213.7043,20.2083,2204,0.0000095,0.99786882,0.0000,09/29.7507/2021,2000,g  8.0,3.2
# From MPEC 2020-KB7
C/2020 H7 (Lemmon),e,135.9235,323.5194,82.6780,1405,0.0000187,0.99685380,0.0000,06/02.9510/2020,2000,g 11.0,4.0
# From MPEC 2021-N06
C/2020 H8 (PANSTARRS),e,99.7070,68.4445,128.8482,595.1919,0.0000679,0.99216029,0.0000,06/04.7232/2020,2000,g 10.5,4.0
# From MPEC 2022-ED3
A/2020 H9,e,137.8756,213.1462,312.6665,348.7643,0.0001513,0.99264931,0.0000,12/21.9221/2019,2000,g 18.0,2.0
# From MPEC 2023-HN7
C/2020 H11 (PANSTARRS-Lemmon),h,09/13.1237/2020,151.3772,303.0555,91.3806,1.000345,7.621253,2000,8.5,4.0
# From MPEC 2023-KD6
C/2020 J1 (SONEAR),e,142.3062,226.5993,341.6150,52119,0.0000001,0.99993579,0.0000,04/18.2673/2021,2000,g  8.5,3.2
# From MPEC 2025-AH4
C/2020 K1 (PANSTARRS),e,89.6710,94.3669,213.9739,3286,0.0000052,0.99906475,0.0000,05/08.9031/2023,2000,g  5.5,4.0
# From MPEC 2021-N06
C/2020 K2 (PANSTARRS),h,08/05.0326/2020,90.9924,288.4303,67.3233,1.001616,8.880357,2000,10.8,4.0
# From MPEC 2020-KF9
C/2020 K3 (Leonard),p,06/01.0032/2020,129.0152,64.4924,1.583069,28.3546,2000,14.5,4.0
# From MPEC 2020-L06
C/2020 K4 (PANSTARRS),e,125.5848,264.2769,308.8170,23.94551,0.0084114,0.92706934,15.0579,01/28.0/2025,2000,g 16.5,4.0
# From MPEC 2021-R75
C/2020 K5 (PANSTARRS),h,06/04.5916/2021,67.0675,86.1411,249.6400,1.000929,1.539887,2000,11.0,4.0
# From MPEC 2023-N01
C/2020 K6 (Rankin),h,09/15.1136/2021,103.6336,291.5952,44.2976,1.002607,5.866863,2000,8.0,4.0
# From MPEC 2023-A50
C/2020 K7 (PANSTARRS),e,32.0445,286.1282,358.1232,95.28081,0.0010597,0.93292401,2.0359,01/28.0/2025,2000,g  8.0,4.0
# From MPEC 2021-P47
C/2020 K8 (Catalina-ATLAS),h,09/15.5864/2020,31.4021,181.3696,260.0884,1.000295,0.471024,2000,15.0,3.2
# From MPEC 2021-BE3
P/2020 K9 (Lemmon-PANSTARRS),e,23.1941,166.3133,197.0968,4.206628,0.1142360,0.32036449,165.2177,01/28.0/2025,2000,g 12.5,4.0
# From MPEC 2023-C45
P/2020 M1 (PANSTARRS),e,8.5341,142.6099,72.5263,5.313153,0.0804777,0.47325077,149.9127,01/28.0/2025,2000,g 14.5,4.0
# From MPEC 2022-H30
C/2020 M3 (ATLAS),e,23.4725,71.1652,328.6517,27.28592,0.0069151,0.95333493,10.7535,01/28.0/2025,2000,g 14.5,4.0
# From MPEC 2023-N01
A/2020 M4,h,11/23.2023/2020,160.1077,348.6184,104.5123,1.000187,5.942454,2000,14.5,2.0
# From MPEC 2024-NE4
P/2020 MK4 (PANSTARRS),e,6.7827,0.6753,93.3050,6.222429,0.0634986,0.01462379,308.7535,01/28.0/2025,2000,g  8.0,4.0
# From MPEC 2023-FK0
C/2020 M5 (ATLAS),h,08/19.8260/2021,93.1833,352.0388,126.2462,1.000173,2.999653,2000,9.0,4.0
# From MPEC 2022-GA9
C/2020 N1 (PANSTARRS),h,03/13.0046/2021,29.7620,279.8614,186.8158,1.000778,1.317002,2000,12.5,4.0
# From MPEC 2021-P47
C/2020 N2 (ATLAS),e,161.0379,257.1862,331.2397,102.0071,0.0009567,0.98249415,0.0000,08/24.3568/2020,2000,g 16.0,3.2
# From MPEC 2024-JU4
C/2020 O2 (Amaral),e,71.7614,256.7949,10.2029,118087,0.0000000,0.99995886,0.0000,08/27.5446/2021,2000,g  8.0,3.2
# From MPEC 2023-C45
P/2020 O3 (PANSTARRS),e,8.4444,266.8177,81.3317,4.646584,0.0984019,0.10243305,143.9235,01/28.0/2025,2000,g 12.0,4.0
# From MPEC 2021-BE3
C/2020 P1 (NEOWISE),h,10/21.1080/2020,45.1490,53.4799,8.9206,1.000420,0.341234,2000,14.0,3.2
# From MPEC 2024-JU4
C/2020 P3 (ATLAS),h,04/22.6942/2021,61.8672,19.4794,82.3345,1.003475,6.814897,2000,6.0,4.0
# From MPEC 2022-PB4
C/2020 PV6 (PANSTARRS),e,128.1677,329.1346,71.3009,41.78689,0.0036487,0.94516285,4.4515,01/28.0/2025,2000,g 10.0,4.0
# From MPEC 2022-L66
